CYGFM05
1 41884U 16078A   20212.85556621 +.00000251 +00000-0 +15000-4 0  9990
2 41884 034.9557 150.3500 0015052 073.2402 286.9960 15.14652396200694
CYGFM04
1 41885U 16078B   20212.87708104 +.00000253 +00000-0 +14913-4 0  9992
2 41885 034.9490 143.1774 0013404 084.5628 275.6612 15.15163107200763
CYGFM02
1 41886U 16078C   20212.86991157 +.00000266 +00000-0 +15610-4 0  9993
2 41886 034.9582 144.9834 0014157 080.1422 280.0887 15.15164032200753
CYGFM01
1 41887U 16078D   20212.89549893 +.00000251 +00000-0 +15072-4 0  9999
2 41887 034.9524 151.3054 0015523 074.2775 285.9647 15.14464887200689
CYGFM08
1 41888U 16078E   20212.54582353  .00000261  00000-0  15438-4 0  9997
2 41888  34.9494 149.0792 0014680  78.4373 281.7986 15.14880366200664
CYGFM06
1 41889U 16078F   20212.84898806 +.00000265 +00000-0 +15544-4 0  9996
2 41889 034.9577 143.8042 0013110 079.9487 280.2703 15.15158067200754
CYGFM07
1 41890U 16078G   20212.89330524 +.00000247 +00000-0 +14598-4 0  9999
2 41890 034.9515 142.6016 0012870 083.8471 276.3707 15.15156750200763
CYGFM03
1 41891U 16078H   20212.88884637 +.00000239 +00000-0 +14178-4 0  9993
2 41891 034.9546 142.8875 0012347 082.4161 277.7952 15.15152261200763
